[{"OBJECT_NAME":"STARLINK-33825","OBJECT_ID":"2025-071N","EPOCH":"2026-03-09T11:53:26.907648","MEAN_MOTION":15.30183313,"ECCENTRICITY":0.00011517,"INCLINATION":53.158,"RA_OF_ASC_NODE":140.5753,"ARG_OF_PERICENTER":70.5737,"MEAN_ANOMALY":289.5389,"EPHEMERIS_TYPE":0,"CLASSIFICATION_TYPE":"U","NORAD_CAT_ID":63505,"ELEMENT_SET_NO":999,"REV_AT_EPOCH":5274,"BSTAR":0.0009884417,"MEAN_MOTION_DOT":0.00029015,"MEAN_MOTION_DDOT":0},{"OBJECT_NAME":"OBJECT D","OBJECT_ID":"2021-102D","EPOCH":"2026-03-09T14:47:14.426880","MEAN_MOTION":15.2846442,"ECCENTRICITY":0.0009157,"INCLINATION":97.3342,"RA_OF_ASC_NODE":112.2633,"ARG_OF_PERICENTER":187.6206,"MEAN_ANOMALY":172.4897,"EPHEMERIS_TYPE":0,"CLASSIFICATION_TYPE":"U","NORAD_CAT_ID":49398,"ELEMENT_SET_NO":999,"REV_AT_EPOCH":23880,"BSTAR":0.00046011,"MEAN_MOTION_DOT":0.00012697,"MEAN_MOTION_DDOT":0}]
